{
   "countryCodes":
   [
      {
         "iso_alpha2":"EG",
         "adlibDeutsch":"Ägypten",
         "continent":"AF",
         "geonameId":"357994"
      },
      {
         "iso_alpha2":"DZ",
         "adlibDeutsch":"Algerien",
         "continent":"AF",
         "geonameId":"2589581"
      },
      {
         "iso_alpha2":"AO",
         "adlibDeutsch":"Angola",
         "continent":"AF",
         "geonameId":"3351879"
      },
      {
         "iso_alpha2":"GQ",
         "adlibDeutsch":"Äquatorialguinea",
         "continent":"AF",
         "geonameId":"2309096"
      },
      {
         "iso_alpha2":"ET",
         "adlibDeutsch":"Äthiopien",
         "continent":"AF",
         "geonameId":"337996"
      },
      {
         "iso_alpha2":"BJ",
         "adlibDeutsch":"Benin",
         "continent":"AF",
         "geonameId":"2395170"
      },
      {
         "iso_alpha2":"BW",
         "adlibDeutsch":"Botswana",
         "continent":"AF",
         "geonameId":"933860"
      },
      {
         "iso_alpha2":"BF",
         "adlibDeutsch":"Obervolta",
         "continent":"AF",
         "geonameId":"2361809"
      },
      {
         "iso_alpha2":"BI",
         "adlibDeutsch":"Burundi",
         "continent":"AF",
         "geonameId":"433561"
      },
      {
         "iso_alpha2":"DJ",
         "adlibDeutsch":"Dschibuti",
         "continent":"AF",
         "geonameId":"223816"
      },
      {
         "iso_alpha2":"CI",
         "adlibDeutsch":"Elfenbeinküste",
         "continent":"AF",
         "geonameId":"2287781"
      },
      {
         "iso_alpha2":"ER",
         "adlibDeutsch":"Eritrea",
         "continent":"AF",
         "geonameId":"338010"
      },
      {
         "iso_alpha2":"GA",
         "adlibDeutsch":"Gabun",
         "continent":"AF",
         "geonameId":"2400553"
      },
      {
         "iso_alpha2":"GM",
         "adlibDeutsch":"Gambia",
         "continent":"AF",
         "geonameId":"2413451"
      },
      {
         "iso_alpha2":"GH",
         "adlibDeutsch":"Ghana",
         "continent":"AF",
         "geonameId":"2300660"
      },
      {
         "iso_alpha2":"GN",
         "adlibDeutsch":"Guinea",
         "continent":"AF",
         "geonameId":"2420477"
      },
      {
         "iso_alpha2":"GW",
         "adlibDeutsch":"Guinea-Bissau",
         "continent":"AF",
         "geonameId":"2372248"
      },
      {
         "iso_alpha2":"CM",
         "adlibDeutsch":"Kamerun",
         "continent":"AF",
         "geonameId":"2233387"
      },
      {
         "iso_alpha2":"CV",
         "adlibDeutsch":"Kap Verde",
         "continent":"AF",
         "geonameId":"3374766"
      },
      {
         "iso_alpha2":"KE",
         "adlibDeutsch":"Kenia",
         "continent":"AF",
         "geonameId":"192950"
      },
      {
         "iso_alpha2":"KM",
         "adlibDeutsch":"Komoren",
         "continent":"AF",
         "geonameId":"921929"
      },
      {
         "iso_alpha2":"CG",
         "adlibDeutsch":"Kongo",
         "continent":"AF",
         "geonameId":"2260494"
      },
      {
         "iso_alpha2":"LS",
         "adlibDeutsch":"Lesotho",
         "continent":"AF",
         "geonameId":"932692"
      },
      {
         "iso_alpha2":"LR",
         "adlibDeutsch":"Liberia",
         "continent":"AF",
         "geonameId":"2275384"
      },
      {
         "iso_alpha2":"LY",
         "adlibDeutsch":"Libyen",
         "continent":"AF",
         "geonameId":"2215636"
      },
      {
         "iso_alpha2":"MG",
         "adlibDeutsch":"Madagaskar",
         "continent":"AF",
         "geonameId":"1062947"
      },
      {
         "iso_alpha2":"MW",
         "adlibDeutsch":"Malawi",
         "continent":"AF",
         "geonameId":"927384"
      },
      {
         "iso_alpha2":"ML",
         "adlibDeutsch":"Mali",
         "continent":"AF",
         "geonameId":"2453866"
      },
      {
         "iso_alpha2":"MA",
         "adlibDeutsch":"Marokko",
         "continent":"AF",
         "geonameId":"2542007"
      },
      {
         "iso_alpha2":"MR",
         "adlibDeutsch":"Mauretanien",
         "continent":"AF",
         "geonameId":"2378080"
      },
      {
         "iso_alpha2":"MU",
         "adlibDeutsch":"Mauritius",
         "continent":"AF",
         "geonameId":"934292"
      },
      {
         "iso_alpha2":"YT",
         "adlibDeutsch":"Mayotte",
         "continent":"AF",
         "geonameId":"1024031"
      },
      {
         "iso_alpha2":"MZ",
         "adlibDeutsch":"Mosambik",
         "continent":"AF",
         "geonameId":"1036973"
      },
      {
         "iso_alpha2":"NA",
         "adlibDeutsch":"Namibia",
         "continent":"AF",
         "geonameId":"3355338"
      },
      {
         "iso_alpha2":"NE",
         "adlibDeutsch":"Niger",
         "continent":"AF",
         "geonameId":"2440476"
      },
      {
         "iso_alpha2":"NG",
         "adlibDeutsch":"Nigeria",
         "continent":"AF",
         "geonameId":"2328926"
      },
      {
         "iso_alpha2":"ZA",
         "adlibDeutsch":"Südafrika",
         "continent":"AF",
         "geonameId":"953987"
      },
      {
         "iso_alpha2":"RE",
         "adlibDeutsch":"Reunion",
         "continent":"AF",
         "geonameId":"935317"
      },
      {
         "iso_alpha2":"RW",
         "adlibDeutsch":"Ruanda",
         "continent":"AF",
         "geonameId":"49518"
      },
      {
         "iso_alpha2":"ZM",
         "adlibDeutsch":"Sambia",
         "continent":"AF",
         "geonameId":"895949"
      },
      {
         "iso_alpha2":"ST",
         "adlibDeutsch":"Sao Tome",
         "continent":"AF",
         "geonameId":"2410758"
      },
      {
         "iso_alpha2":"SN",
         "adlibDeutsch":"Senegal",
         "continent":"AF",
         "geonameId":"2245662"
      },
      {
         "iso_alpha2":"SC",
         "adlibDeutsch":"Seychellen",
         "continent":"AF",
         "geonameId":"241170"
      },
      {
         "iso_alpha2":"SL",
         "adlibDeutsch":"Sierra Leone",
         "continent":"AF",
         "geonameId":"2403846"
      },
      {
         "iso_alpha2":"ZW",
         "adlibDeutsch":"Simbabwe",
         "continent":"AF",
         "geonameId":"878675"
      },
      {
         "iso_alpha2":"SO",
         "adlibDeutsch":"Somalia",
         "continent":"AF",
         "geonameId":"51537"
      },
      {
         "iso_alpha2":"SD",
         "adlibDeutsch":"Sudan",
         "continent":"AF",
         "geonameId":"366755"
      },
      {
         "iso_alpha2":"SS",
         "adlibDeutsch":"Südsudan",
         "continent":"AF",
         "geonameId":"7909807"
      },
      {
         "iso_alpha2":"SZ",
         "adlibDeutsch":"Swasiland",
         "continent":"AF",
         "geonameId":"934841"
      },
      {
         "iso_alpha2":"TZ",
         "adlibDeutsch":"Tansania",
         "continent":"AF",
         "geonameId":"149590"
      },
      {
         "iso_alpha2":"TG",
         "adlibDeutsch":"Togo",
         "continent":"AF",
         "geonameId":"2363686"
      },
      {
         "iso_alpha2":"TD",
         "adlibDeutsch":"Tschad",
         "continent":"AF",
         "geonameId":"2434508"
      },
      {
         "iso_alpha2":"TN",
         "adlibDeutsch":"Tunesien",
         "continent":"AF",
         "geonameId":"2464461"
      },
      {
         "iso_alpha2":"UG",
         "adlibDeutsch":"Uganda",
         "continent":"AF",
         "geonameId":"226074"
      },
      {
         "iso_alpha2":"EH",
         "adlibDeutsch":"Westsahara",
         "continent":"AF",
         "geonameId":"2461445"
      },
      {
         "iso_alpha2":"CD",
         "adlibDeutsch":"Zaire",
         "continent":"AF",
         "geonameId":"203312"
      },
      {
         "iso_alpha2":"CF",
         "adlibDeutsch":"Zentralafrikanisch",
         "continent":"AF",
         "geonameId":"239880"
      },
      {
         "iso_alpha2":"AQ",
         "adlibDeutsch":"Antarktis",
         "continent":"AN",
         "geonameId":"6697173"
      },
      {
         "iso_alpha2":"BV",
         "adlibDeutsch":"Bouvetinsel",
         "continent":"AN",
         "geonameId":"3371123"
      },
      {
         "iso_alpha2":"AF",
         "adlibDeutsch":"Afghanistan",
         "continent":"AS",
         "geonameId":"1149361"
      },
      {
         "iso_alpha2":"AM",
         "adlibDeutsch":"Armenien",
         "continent":"AS",
         "geonameId":"174982"
      },
      {
         "iso_alpha2":"AZ",
         "adlibDeutsch":"Aserbaidschan",
         "continent":"AS",
         "geonameId":"587116"
      },
      {
         "iso_alpha2":"BH",
         "adlibDeutsch":"Bahrain",
         "continent":"AS",
         "geonameId":"290291"
      },
      {
         "iso_alpha2":"BD",
         "adlibDeutsch":"Bangladesch",
         "continent":"AS",
         "geonameId":"1210997"
      },
      {
         "iso_alpha2":"BT",
         "adlibDeutsch":"Bhutan",
         "continent":"AS",
         "geonameId":"1252634"
      },
      {
         "iso_alpha2":"MM",
         "adlibDeutsch":"Myanmar",
         "continent":"AS",
         "geonameId":"1327865"
      },
      {
         "iso_alpha2":"BN",
         "adlibDeutsch":"Brunei",
         "continent":"AS",
         "geonameId":"1820814"
      },
      {
         "iso_alpha2":"CN",
         "adlibDeutsch":"China",
         "continent":"AS",
         "geonameId":"1814991"
      },
      {
         "iso_alpha2":"GE",
         "adlibDeutsch":"Georgien",
         "continent":"AS",
         "geonameId":"614540"
      },
      {
         "iso_alpha2":"HK",
         "adlibDeutsch":"Hongkong",
         "continent":"AS",
         "geonameId":"1819730"
      },
      {
         "iso_alpha2":"IN",
         "adlibDeutsch":"Indien",
         "continent":"AS",
         "geonameId":"1269750"
      },
      {
         "iso_alpha2":"ID",
         "adlibDeutsch":"Indonesien",
         "continent":"AS",
         "geonameId":"1643084"
      },
      {
         "iso_alpha2":"IQ",
         "adlibDeutsch":"Irak",
         "continent":"AS",
         "geonameId":"99237"
      },
      {
         "iso_alpha2":"IR",
         "adlibDeutsch":"Iran",
         "continent":"AS",
         "geonameId":"130758"
      },
      {
         "iso_alpha2":"IL",
         "adlibDeutsch":"Israel",
         "continent":"AS",
         "geonameId":"294640"
      },
      {
         "iso_alpha2":"JP",
         "adlibDeutsch":"Japan",
         "continent":"AS",
         "geonameId":"1861060"
      },
      {
         "iso_alpha2":"YE",
         "adlibDeutsch":"Jemen",
         "continent":"AS",
         "geonameId":"69543"
      },
      {
         "iso_alpha2":"JO",
         "adlibDeutsch":"Jordanien",
         "continent":"AS",
         "geonameId":"248816"
      },
      {
         "iso_alpha2":"KH",
         "adlibDeutsch":"Kambodscha",
         "continent":"AS",
         "geonameId":"1831722"
      },
      {
         "iso_alpha2":"KZ",
         "adlibDeutsch":"Kasachstan",
         "continent":"AS",
         "geonameId":"1522867"
      },
      {
         "iso_alpha2":"QA",
         "adlibDeutsch":"Katar",
         "continent":"AS",
         "geonameId":"289688"
      },
      {
         "iso_alpha2":"KG",
         "adlibDeutsch":"Kirgistan",
         "continent":"AS",
         "geonameId":"1527747"
      },
      {
         "iso_alpha2":"CC",
         "adlibDeutsch":"Kokosinseln",
         "continent":"AS",
         "geonameId":"1547376"
      },
      {
         "iso_alpha2":"KW",
         "adlibDeutsch":"Kuwait",
         "continent":"AS",
         "geonameId":"285570"
      },
      {
         "iso_alpha2":"LA",
         "adlibDeutsch":"Laos",
         "continent":"AS",
         "geonameId":"1655842"
      },
      {
         "iso_alpha2":"LB",
         "adlibDeutsch":"Libanon",
         "continent":"AS",
         "geonameId":"272103"
      },
      {
         "iso_alpha2":"MO",
         "adlibDeutsch":"Macau",
         "continent":"AS",
         "geonameId":"1821275"
      },
      {
         "iso_alpha2":"MY",
         "adlibDeutsch":"Malaysien",
         "continent":"AS",
         "geonameId":"1733045"
      },
      {
         "iso_alpha2":"MV",
         "adlibDeutsch":"Malediven",
         "continent":"AS",
         "geonameId":"1282028"
      },
      {
         "iso_alpha2":"MN",
         "adlibDeutsch":"Mongolei",
         "continent":"AS",
         "geonameId":"2029969"
      },
      {
         "iso_alpha2":"NP",
         "adlibDeutsch":"Nepal",
         "continent":"AS",
         "geonameId":"1282988"
      },
      {
         "iso_alpha2":"KP",
         "adlibDeutsch":"Nordkorea",
         "continent":"AS",
         "geonameId":"1873107"
      },
      {
         "iso_alpha2":"OM",
         "adlibDeutsch":"Oman",
         "continent":"AS",
         "geonameId":"286963"
      },
      {
         "iso_alpha2":"PK",
         "adlibDeutsch":"Pakistan",
         "continent":"AS",
         "geonameId":"1168579"
      },
      {
         "iso_alpha2":"PS",
         "adlibDeutsch":"Palästina",
         "continent":"AS",
         "geonameId":"6254930"
      },
      {
         "iso_alpha2":"PH",
         "adlibDeutsch":"Philippinen",
         "continent":"AS",
         "geonameId":"1694008"
      },
      {
         "iso_alpha2":"SA",
         "adlibDeutsch":"Saudi-Arabien",
         "continent":"AS",
         "geonameId":"102358"
      },
      {
         "iso_alpha2":"SG",
         "adlibDeutsch":"Singapur",
         "continent":"AS",
         "geonameId":"1880251"
      },
      {
         "iso_alpha2":"LK",
         "adlibDeutsch":"Sri Lanka",
         "continent":"AS",
         "geonameId":"1227603"
      },
      {
         "iso_alpha2":"KR",
         "adlibDeutsch":"Südkorea",
         "continent":"AS",
         "geonameId":"1835841"
      },
      {
         "iso_alpha2":"SY",
         "adlibDeutsch":"Syrien",
         "continent":"AS",
         "geonameId":"163843"
      },
      {
         "iso_alpha2":"TJ",
         "adlibDeutsch":"Tadschikistan",
         "continent":"AS",
         "geonameId":"1220409"
      },
      {
         "iso_alpha2":"TW",
         "adlibDeutsch":"Taiwan",
         "continent":"AS",
         "geonameId":"1668284"
      },
      {
         "iso_alpha2":"TH",
         "adlibDeutsch":"Thailand",
         "continent":"AS",
         "geonameId":"1605651"
      },
      {
         "iso_alpha2":"TR",
         "adlibDeutsch":"Türkei",
         "continent":"AS",
         "geonameId":"298795"
      },
      {
         "iso_alpha2":"TM",
         "adlibDeutsch":"Turkmenistan",
         "continent":"AS",
         "geonameId":"1218197"
      },
      {
         "iso_alpha2":"UZ",
         "adlibDeutsch":"Usbekistan",
         "continent":"AS",
         "geonameId":"1512440"
      },
      {
         "iso_alpha2":"AE",
         "adlibDeutsch":"Emirate",
         "continent":"AS",
         "geonameId":"290557"
      },
      {
         "iso_alpha2":"VN",
         "adlibDeutsch":"Vietnam",
         "continent":"AS",
         "geonameId":"1562822"
      },
      {
         "iso_alpha2":"AL",
         "adlibDeutsch":"Albanien",
         "continent":"EU",
         "geonameId":"783754"
      },
      {
         "iso_alpha2":"AD",
         "adlibDeutsch":"Andorra",
         "continent":"EU",
         "geonameId":"3041565"
      },
      {
         "iso_alpha2":"BY",
         "adlibDeutsch":"Belarus",
         "continent":"EU",
         "geonameId":"630336"
      },
      {
         "iso_alpha2":"BE",
         "adlibDeutsch":"Belgien",
         "continent":"EU",
         "geonameId":"2802361"
      },
      {
         "iso_alpha2":"BA",
         "adlibDeutsch":"Bosnien",
         "continent":"EU",
         "geonameId":"3277605"
      },
      {
         "iso_alpha2":"BG",
         "adlibDeutsch":"Bulgarien",
         "continent":"EU",
         "geonameId":"732800"
      },
      {
         "iso_alpha2":"DK",
         "adlibDeutsch":"Dänemark",
         "continent":"EU",
         "geonameId":"2623032"
      },
      {
         "iso_alpha2":"DE",
         "adlibDeutsch":"Deutschland",
         "continent":"EU",
         "geonameId":"2921044"
      },
      {
         "iso_alpha2":"MK",
         "adlibDeutsch":"Mazedonien",
         "continent":"EU",
         "geonameId":"718075"
      },
      {
         "iso_alpha2":"EE",
         "adlibDeutsch":"Estland",
         "continent":"EU",
         "geonameId":"453733"
      },
      {
         "iso_alpha2":"FO",
         "adlibDeutsch":"Färöer",
         "continent":"EU",
         "geonameId":"2622320"
      },
      {
         "iso_alpha2":"FI",
         "adlibDeutsch":"Finnland",
         "continent":"EU",
         "geonameId":"660013"
      },
      {
         "iso_alpha2":"FR",
         "adlibDeutsch":"Frankreich",
         "continent":"EU",
         "geonameId":"3017382"
      },
      {
         "iso_alpha2":"GI",
         "adlibDeutsch":"Gibraltar",
         "continent":"EU",
         "geonameId":"2411586"
      },
      {
         "iso_alpha2":"GR",
         "adlibDeutsch":"Griechenland",
         "continent":"EU",
         "geonameId":"390903"
      },
      {
         "iso_alpha2":"GG",
         "adlibDeutsch":"Guernsey",
         "continent":"EU",
         "geonameId":"3042362"
      },
      {
         "iso_alpha2":"IE",
         "adlibDeutsch":"Irland",
         "continent":"EU",
         "geonameId":"2963597"
      },
      {
         "iso_alpha2":"IS",
         "adlibDeutsch":"Island",
         "continent":"EU",
         "geonameId":"2629691"
      },
      {
         "iso_alpha2":"IT",
         "adlibDeutsch":"Italien",
         "continent":"EU",
         "geonameId":"3175395"
      },
      {
         "iso_alpha2":"JE",
         "adlibDeutsch":"Jersey",
         "continent":"EU",
         "geonameId":"3042142"
      },
      {
         "iso_alpha2":"XK",
         "adlibDeutsch":"Kosovo",
         "continent":"EU",
         "geonameId":"831053"
      },
      {
         "iso_alpha2":"HR",
         "adlibDeutsch":"Kroatien",
         "continent":"EU",
         "geonameId":"3202326"
      },
      {
         "iso_alpha2":"LV",
         "adlibDeutsch":"Lettland",
         "continent":"EU",
         "geonameId":"458258"
      },
      {
         "iso_alpha2":"LI",
         "adlibDeutsch":"Liechtenstein",
         "continent":"EU",
         "geonameId":"3042058"
      },
      {
         "iso_alpha2":"LT",
         "adlibDeutsch":"Litauen",
         "continent":"EU",
         "geonameId":"597427"
      },
      {
         "iso_alpha2":"LU",
         "adlibDeutsch":"Luxemburg",
         "continent":"EU",
         "geonameId":"2960313"
      },
      {
         "iso_alpha2":"MT",
         "adlibDeutsch":"Malta",
         "continent":"EU",
         "geonameId":"2562770"
      },
      {
         "iso_alpha2":"MD",
         "adlibDeutsch":"Moldawien",
         "continent":"EU",
         "geonameId":"617790"
      },
      {
         "iso_alpha2":"MC",
         "adlibDeutsch":"Monaco",
         "continent":"EU",
         "geonameId":"2993457"
      },
      {
         "iso_alpha2":"ME",
         "adlibDeutsch":"Montenegro",
         "continent":"EU",
         "geonameId":"3194884"
      },
      {
         "iso_alpha2":"NL",
         "adlibDeutsch":"Niederlande",
         "continent":"EU",
         "geonameId":"2750405"
      },
      {
         "iso_alpha2":"NO",
         "adlibDeutsch":"Norwegen",
         "continent":"EU",
         "geonameId":"3144096"
      },
      {
         "iso_alpha2":"AT",
         "adlibDeutsch":"Österreich",
         "continent":"EU",
         "geonameId":"2782113"
      },
      {
         "iso_alpha2":"PL",
         "adlibDeutsch":"Polen",
         "continent":"EU",
         "geonameId":"798544"
      },
      {
         "iso_alpha2":"PT",
         "adlibDeutsch":"Portugal",
         "continent":"EU",
         "geonameId":"2264397"
      },
      {
         "iso_alpha2":"RO",
         "adlibDeutsch":"Rumänien",
         "continent":"EU",
         "geonameId":"798549"
      },
      {
         "iso_alpha2":"RU",
         "adlibDeutsch":"Russland",
         "continent":"EU",
         "geonameId":"2017370"
      },
      {
         "iso_alpha2":"SM",
         "adlibDeutsch":"San Marino",
         "continent":"EU",
         "geonameId":"3168068"
      },
      {
         "iso_alpha2":"SE",
         "adlibDeutsch":"Schweden",
         "continent":"EU",
         "geonameId":"2661886"
      },
      {
         "iso_alpha2":"CH",
         "adlibDeutsch":"Schweiz",
         "continent":"EU",
         "geonameId":"2658434"
      },
      {
         "iso_alpha2":"RS",
         "adlibDeutsch":"Serbien",
         "continent":"EU",
         "geonameId":"6290252"
      },
      {
         "iso_alpha2":"SK",
         "adlibDeutsch":"Slowakei",
         "continent":"EU",
         "geonameId":"3057568"
      },
      {
         "iso_alpha2":"SI",
         "adlibDeutsch":"Slowenien",
         "continent":"EU",
         "geonameId":"3190538"
      },
      {
         "iso_alpha2":"ES",
         "adlibDeutsch":"Spanien",
         "continent":"EU",
         "geonameId":"2510769"
      },
      {
         "iso_alpha2":"VA",
         "adlibDeutsch":"Vatikan",
         "continent":"EU",
         "geonameId":"3164670"
      },
      {
         "iso_alpha2":"SJ",
         "adlibDeutsch":"Spitzbergen",
         "continent":"EU",
         "geonameId":"607072"
      },
      {
         "iso_alpha2":"CZ",
         "adlibDeutsch":"Tschechien",
         "continent":"EU",
         "geonameId":"3077311"
      },
      {
         "iso_alpha2":"UA",
         "adlibDeutsch":"Ukraine",
         "continent":"EU",
         "geonameId":"690791"
      },
      {
         "iso_alpha2":"HU",
         "adlibDeutsch":"Ungarn",
         "continent":"EU",
         "geonameId":"719819"
      },
      {
         "iso_alpha2":"GB",
         "adlibDeutsch":"Großbritannien",
         "continent":"EU",
         "geonameId":"2635167"
      },
      {
         "iso_alpha2":"CY",
         "adlibDeutsch":"Zypern",
         "continent":"EU",
         "geonameId":"146669"
      },
      {
         "iso_alpha2":"AI",
         "adlibDeutsch":"Anguilla",
         "continent":"NA",
         "geonameId":"3573511"
      },
      {
         "iso_alpha2":"AG",
         "adlibDeutsch":"Antigua",
         "continent":"NA",
         "geonameId":"3576396"
      },
      {
         "iso_alpha2":"AW",
         "adlibDeutsch":"Aruba",
         "continent":"NA",
         "geonameId":"3577279"
      },
      {
         "iso_alpha2":"BS",
         "adlibDeutsch":"Bahamas",
         "continent":"NA",
         "geonameId":"3572887"
      },
      {
         "iso_alpha2":"BB",
         "adlibDeutsch":"Barbados",
         "continent":"NA",
         "geonameId":"3374084"
      },
      {
         "iso_alpha2":"BZ",
         "adlibDeutsch":"Belize",
         "continent":"NA",
         "geonameId":"3582678"
      },
      {
         "iso_alpha2":"BM",
         "adlibDeutsch":"Bermuda",
         "continent":"NA",
         "geonameId":"3573345"
      },
      {
         "iso_alpha2":"CR",
         "adlibDeutsch":"Costa Rica",
         "continent":"NA",
         "geonameId":"3624060"
      },
      {
         "iso_alpha2":"CW",
         "adlibDeutsch":"Curaçao",
         "continent":"NA",
         "geonameId":"7626836"
      },
      {
         "iso_alpha2":"DM",
         "adlibDeutsch":"Dominica",
         "continent":"NA",
         "geonameId":"3575830"
      },
      {
         "iso_alpha2":"DO",
         "adlibDeutsch":"Dominikanische",
         "continent":"NA",
         "geonameId":"3508796"
      },
      {
         "iso_alpha2":"SV",
         "adlibDeutsch":"El Salvador",
         "continent":"NA",
         "geonameId":"3585968"
      },
      {
         "iso_alpha2":"GD",
         "adlibDeutsch":"Grenada",
         "continent":"NA",
         "geonameId":"3580239"
      },
      {
         "iso_alpha2":"GL",
         "adlibDeutsch":"Grönland",
         "continent":"NA",
         "geonameId":"3425505"
      },
      {
         "iso_alpha2":"GP",
         "adlibDeutsch":"Guadeloupe",
         "continent":"NA",
         "geonameId":"3579143"
      },
      {
         "iso_alpha2":"GT",
         "adlibDeutsch":"Guatemala",
         "continent":"NA",
         "geonameId":"3595528"
      },
      {
         "iso_alpha2":"HT",
         "adlibDeutsch":"Haiti",
         "continent":"NA",
         "geonameId":"3723988"
      },
      {
         "iso_alpha2":"HN",
         "adlibDeutsch":"Honduras",
         "continent":"NA",
         "geonameId":"3608932"
      },
      {
         "iso_alpha2":"JM",
         "adlibDeutsch":"Jamaika",
         "continent":"NA",
         "geonameId":"3489940"
      },
      {
         "iso_alpha2":"KY",
         "adlibDeutsch":"Kaimaninseln",
         "continent":"NA",
         "geonameId":"3580718"
      },
      {
         "iso_alpha2":"CA",
         "adlibDeutsch":"Kanada",
         "continent":"NA",
         "geonameId":"6251999"
      },
      {
         "iso_alpha2":"CU",
         "adlibDeutsch":"Kuba",
         "continent":"NA",
         "geonameId":"3562981"
      },
      {
         "iso_alpha2":"MQ",
         "adlibDeutsch":"Martinique",
         "continent":"NA",
         "geonameId":"3570311"
      },
      {
         "iso_alpha2":"MX",
         "adlibDeutsch":"Mexiko",
         "continent":"NA",
         "geonameId":"3996063"
      },
      {
         "iso_alpha2":"MS",
         "adlibDeutsch":"Montserrat",
         "continent":"NA",
         "geonameId":"3578097"
      },
      {
         "iso_alpha2":"NI",
         "adlibDeutsch":"Nicaragua",
         "continent":"NA",
         "geonameId":"3617476"
      },
      {
         "iso_alpha2":"PA",
         "adlibDeutsch":"Panama",
         "continent":"NA",
         "geonameId":"3703430"
      },
      {
         "iso_alpha2":"PR",
         "adlibDeutsch":"Puerto Rico",
         "continent":"NA",
         "geonameId":"4566966"
      },
      {
         "iso_alpha2":"TT",
         "adlibDeutsch":"Trinidad",
         "continent":"NA",
         "geonameId":"3573591"
      },
      {
         "iso_alpha2":"US",
         "adlibDeutsch":"USA",
         "continent":"NA",
         "geonameId":"6252001"
      },
      {
         "iso_alpha2":"AS",
         "adlibDeutsch":"Samoa",
         "continent":"OC",
         "geonameId":"5880801"
      },
      {
         "iso_alpha2":"AU",
         "adlibDeutsch":"Australien",
         "continent":"OC",
         "geonameId":"2077456"
      },
      {
         "iso_alpha2":"CK",
         "adlibDeutsch":"Cookinseln",
         "continent":"OC",
         "geonameId":"1899402"
      },
      {
         "iso_alpha2":"FJ",
         "adlibDeutsch":"Fidschi",
         "continent":"OC",
         "geonameId":"2205218"
      },
      {
         "iso_alpha2":"PF",
         "adlibDeutsch":"Polynesien",
         "continent":"OC",
         "geonameId":"4030656"
      },
      {
         "iso_alpha2":"GU",
         "adlibDeutsch":"Guam",
         "continent":"OC",
         "geonameId":"4043988"
      },
      {
         "iso_alpha2":"KI",
         "adlibDeutsch":"Kiribati",
         "continent":"OC",
         "geonameId":"4030945"
      },
      {
         "iso_alpha2":"FM",
         "adlibDeutsch":"Mikronesien",
         "continent":"OC",
         "geonameId":"2081918"
      },
      {
         "iso_alpha2":"NR",
         "adlibDeutsch":"Nauru",
         "continent":"OC",
         "geonameId":"2110425"
      },
      {
         "iso_alpha2":"NC",
         "adlibDeutsch":"Neukaledonien",
         "continent":"OC",
         "geonameId":"2139685"
      },
      {
         "iso_alpha2":"NZ",
         "adlibDeutsch":"Neuseeland",
         "continent":"OC",
         "geonameId":"2186224"
      },
      {
         "iso_alpha2":"NF",
         "adlibDeutsch":"Norfolkinsel",
         "continent":"OC",
         "geonameId":"2155115"
      },
      {
         "iso_alpha2":"PW",
         "adlibDeutsch":"Palau",
         "continent":"OC",
         "geonameId":"1559582"
      },
      {
         "iso_alpha2":"PG",
         "adlibDeutsch":"Papua",
         "continent":"OC",
         "geonameId":"2088628"
      },
      {
         "iso_alpha2":"PN",
         "adlibDeutsch":"Pitcairn",
         "continent":"OC",
         "geonameId":"4030699"
      },
      {
         "iso_alpha2":"WS",
         "adlibDeutsch":"Samoa",
         "continent":"OC",
         "geonameId":"4034894"
      },
      {
         "iso_alpha2":"SB",
         "adlibDeutsch":"Solomon-Inseln",
         "continent":"OC",
         "geonameId":"2103350"
      },
      {
         "iso_alpha2":"TL",
         "adlibDeutsch":"Timor",
         "continent":"OC",
         "geonameId":"1966436"
      },
      {
         "iso_alpha2":"TK",
         "adlibDeutsch":"Tokelau",
         "continent":"OC",
         "geonameId":"4031074"
      },
      {
         "iso_alpha2":"TO",
         "adlibDeutsch":"Tonga",
         "continent":"OC",
         "geonameId":"4032283"
      },
      {
         "iso_alpha2":"TV",
         "adlibDeutsch":"Tuwalu",
         "continent":"OC",
         "geonameId":"2110297"
      },
      {
         "iso_alpha2":"VU",
         "adlibDeutsch":"Vanuatu",
         "continent":"OC",
         "geonameId":"2134431"
      },
      {
         "iso_alpha2":"AR",
         "adlibDeutsch":"Argentinien",
         "continent":"SA",
         "geonameId":"3865483"
      },
      {
         "iso_alpha2":"BO",
         "adlibDeutsch":"Bolivien",
         "continent":"SA",
         "geonameId":"3923057"
      },
      {
         "iso_alpha2":"BR",
         "adlibDeutsch":"Brasilien",
         "continent":"SA",
         "geonameId":"3469034"
      },
      {
         "iso_alpha2":"CL",
         "adlibDeutsch":"Chile",
         "continent":"SA",
         "geonameId":"3895114"
      },
      {
         "iso_alpha2":"EC",
         "adlibDeutsch":"Ecuador",
         "continent":"SA",
         "geonameId":"3658394"
      },
      {
         "iso_alpha2":"FK",
         "adlibDeutsch":"Falkland",
         "continent":"SA",
         "geonameId":"3474414"
      },
      {
         "iso_alpha2":"GF",
         "adlibDeutsch":"Guayana",
         "continent":"SA",
         "geonameId":"3381670"
      },
      {
         "iso_alpha2":"GY",
         "adlibDeutsch":"Guyana",
         "continent":"SA",
         "geonameId":"3378535"
      },
      {
         "iso_alpha2":"CO",
         "adlibDeutsch":"Kolumbien",
         "continent":"SA",
         "geonameId":"3686110"
      },
      {
         "iso_alpha2":"PY",
         "adlibDeutsch":"Paraguay",
         "continent":"SA",
         "geonameId":"3437598"
      },
      {
         "iso_alpha2":"PE",
         "adlibDeutsch":"Peru",
         "continent":"SA",
         "geonameId":"3932488"
      },
      {
         "iso_alpha2":"SR",
         "adlibDeutsch":"Surinam",
         "continent":"SA",
         "geonameId":"3382998"
      },
      {
         "iso_alpha2":"UY",
         "adlibDeutsch":"Uruguay",
         "continent":"SA",
         "geonameId":"3439705"
      },
      {
         "iso_alpha2":"VE",
         "adlibDeutsch":"Venezuela",
         "continent":"SA",
         "geonameId":"3625428"
      }
   ]
}